{
  "type": "FeatureCollection",
  "features": [
    {
      "type": "Feature",
      "geometry": {
        "type": "Point",
        "coordinates": [
          854320.2256384962,
          6519298.515447944
        ]
      },
      "properties": {
        "id": 0,
        "type": "Entry",
        "signals": []
      }
    },
    {
      "type": "Feature",
      "geometry": {
        "type": "Point",
        "coordinates": [
          854335.9057798074,
          6519300.652295362
        ]
      },
      "properties": {
        "id": 1,
        "type": "Exit",
        "signals": []
      }
    },
    {
      "type": "Feature",
      "geometry": {
        "type": "Point",
        "coordinates": [
          854336.7132778855,
          6518990.501219999
        ]
      },
      "properties": {
        "id": 2,
        "type": "Internal",
        "signals": []
      }
    },
    {
      "type": "Feature",
      "geometry": {
        "type": "Point",
        "coordinates": [
          854397.5031971084,
          6518728.459552716
        ]
      },
      "properties": {
        "id": 3,
        "type": "Internal",
        "signals": []
      }
    },
    {
      "type": "Feature",
      "geometry": {
        "type": "Point",
        "coordinates": [
          854397.8045392467,
          6518785.974457751
        ]
      },
      "properties": {
        "id": 4,
        "type": "Internal",
        "signals": []
      }
    },
    {
      "type": "Feature",
      "geometry": {
        "type": "Point",
        "coordinates": [
          854576.594459866,
          6518351.314574015
        ]
      },
      "properties": {
        "id": 5,
        "type": "Internal",
        "signals": []
      }
    },
    {
      "type": "Feature",
      "geometry": {
        "type": "Point",
        "coordinates": [
          854582.0741630414,
          6518064.325702309
        ]
      },
      "properties": {
        "id": 6,
        "type": "Exit",
        "signals": []
      }
    },
    {
      "type": "Feature",
      "geometry": {
        "type": "Point",
        "coordinates": [
          854592.7453493795,
          6518057.187387341
        ]
      },
      "properties": {
        "id": 7,
        "type": "Entry",
        "signals": []
      }
    },
    {
      "type": "Feature",
      "geometry": {
        "type": "Point",
        "coordinates": [
          854650.8292866657,
          6518597.16683862
        ]
      },
      "properties": {
        "id": 8,
        "type": "Internal",
        "signals": []
      }
    },
    {
      "type": "Feature",
      "geometry": {
        "type": "Point",
        "coordinates": [
          854746.0619789944,
          6518564.713402379
        ]
      },
      "properties": {
        "id": 9,
        "type": "Internal",
        "signals": []
      }
    },
    {
      "type": "Feature",
      "geometry": {
        "type": "Point",
        "coordinates": [
          855482.7828785201,
          6518539.766197534
        ]
      },
      "properties": {
        "id": 10,
        "type": "Entry",
        "signals": []
      }
    },
    {
      "type": "Feature",
      "geometry": {
        "type": "Point",
        "coordinates": [
          855483.1689603247,
          6518524.527134413
        ]
      },
      "properties": {
        "id": 11,
        "type": "Exit",
        "signals": []
      }
    },
    {
      "type": "Feature",
      "geometry": {
        "type": "LineString",
        "coordinates": [
          [
            855482.7828785201,
            6518539.766197534
          ],
          [
            855402.6707284407,
            6518527.280735691
          ],
          [
            855301.4140580448,
            6518521.232109733
          ],
          [
            855189.4530634303,
            6518523.628088225
          ],
          [
            855063.1615759683,
            6518539.605753612
          ],
          [
            854915.9469805193,
            6518553.315037798
          ],
          [
            854835.1749443739,
            6518566.961039199
          ],
          [
            854715.9624957048,
            6518579.638842276
          ],
          [
            854650.8292866657,
            6518597.16683862
          ]
        ]
      },
      "properties": {
        "id": 0,
        "node_up": 10,
        "node_down": 8,
        "length": 838.9045422558034,
        "speed": 25.0,
        "lanes": 2,
        "capacity": 1.1666666666666667,
        "fd_u": 25.0,
        "fd_w": 6.03448275862069,
        "fd_kx": 0.12,
        "fd_c": 0.5833333333333334
      }
    },
    {
      "type": "Feature",
      "geometry": {
        "type": "LineString",
        "coordinates": [
          [
            854650.8292866657,
            6518597.16683862
          ],
          [
            854589.1471938447,
            6518616.525077416
          ],
          [
            854527.2023893044,
            6518646.333324633
          ],
          [
            854500.4668972254,
            6518666.572303586
          ],
          [
            854459.4026876339,
            6518700.391989787
          ],
          [
            854435.9868890003,
            6518727.68522767
          ],
          [
            854397.8045392467,
            6518785.974457751
          ]
        ]
      },
      "properties": {
        "id": 1,
        "node_up": 8,
        "node_down": 4,
        "length": 325.76532757685436,
        "speed": 13.88888888888889,
        "lanes": 1,
        "capacity": 0.4166666666666667,
        "fd_u": 13.88888888888889,
        "fd_w": 3.7878787878787876,
        "fd_kx": 0.14,
        "fd_c": 0.4166666666666667
      }
    },
    {
      "type": "Feature",
      "geometry": {
        "type": "LineString",
        "coordinates": [
          [
            854650.8292866657,
            6518597.16683862
          ],
          [
            854541.5315613201,
            6518632.752695621
          ],
          [
            854488.5427961147,
            6518654.073396723
          ],
          [
            854336.7430381039,
            6518711.247287929
          ],
          [
            854292.5358123477,
            6518731.047540902
          ],
          [
            854270.8681430519,
            6518758.385181317
          ],
          [
            854264.9259189888,
            6518786.118047042
          ],
          [
            854274.7964885158,
            6518810.763035947
          ],
          [
            854298.9951675155,
            6518821.82718937
          ],
          [
            854325.1599734568,
            6518824.227740557
          ],
          [
            854349.9279393859,
            6518812.652247103
          ],
          [
            854371.771015408,
            6518778.3489742
          ],
          [
            854397.5031971084,
            6518728.459552716
          ]
        ]
      },
      "properties": {
        "id": 2,
        "node_up": 8,
        "node_down": 3,
        "length": 649.5288300368213,
        "speed": 13.88888888888889,
        "lanes": 1,
        "capacity": 0.4166666666666667,
        "fd_u": 13.88888888888889,
        "fd_w": 3.7878787878787876,
        "fd_kx": 0.14,
        "fd_c": 0.4166666666666667
      }
    },
    {
      "type": "Feature",
      "geometry": {
        "type": "LineString",
        "coordinates": [
          [
            854592.7453493795,
            6518057.187387341
          ],
          [
            854600.2905690843,
            6518174.147037182
          ],
          [
            854592.7669868058,
            6518264.583152057
          ],
          [
            854576.594459866,
            6518351.314574015
          ]
        ]
      },
      "properties": {
        "id": 3,
        "node_up": 7,
        "node_down": 5,
        "length": 296.1776578416324,
        "speed": 30.555555555555554,
        "lanes": 2,
        "capacity": 1.1666666666666667,
        "fd_u": 30.555555555555554,
        "fd_w": 5.780780780780781,
        "fd_kx": 0.12,
        "fd_c": 0.5833333333333334
      }
    },
    {
      "type": "Feature",
      "geometry": {
        "type": "LineString",
        "coordinates": [
          [
            854576.594459866,
            6518351.314574015
          ],
          [
            854556.5329138576,
            6518453.631484063
          ],
          [
            854548.4032107557,
            6518498.737668965
          ],
          [
            854561.5923466503,
            6518530.4387225
          ],
          [
            854581.9460708946,
            6518555.34928967
          ],
          [
            854613.0906197063,
            6518568.332775817
          ],
          [
            854639.1247665745,
            6518575.959526792
          ],
          [
            854674.1587555514,
            6518573.356999558
          ],
          [
            854746.0619789944,
            6518564.713402379
          ]
        ]
      },
      "properties": {
        "id": 4,
        "node_up": 5,
        "node_down": 9,
        "length": 385.0239747913269,
        "speed": 13.88888888888889,
        "lanes": 1,
        "capacity": 0.4166666666666667,
        "fd_u": 13.88888888888889,
        "fd_w": 3.7878787878787876,
        "fd_kx": 0.14,
        "fd_c": 0.4166666666666667
      }
    },
    {
      "type": "Feature",
      "geometry": {
        "type": "LineString",
        "coordinates": [
          [
            854576.594459866,
            6518351.314574015
          ],
          [
            854538.9278960626,
            6518458.416348662
          ],
          [
            854503.8429851282,
            6518532.470007309
          ],
          [
            854470.3308590592,
            6518613.533279124
          ],
          [
            854427.8640918793,
            6518703.083603354
          ],
          [
            854397.8045392467,
            6518785.974457751
          ]
        ]
      },
      "properties": {
        "id": 5,
        "node_up": 5,
        "node_down": 4,
        "length": 470.47634439116223,
        "speed": 30.555555555555554,
        "lanes": 2,
        "capacity": 1.1666666666666667,
        "fd_u": 30.555555555555554,
        "fd_w": 5.780780780780781,
        "fd_kx": 0.12,
        "fd_c": 0.5833333333333334
      }
    },
    {
      "type": "Feature",
      "geometry": {
        "type": "LineString",
        "coordinates": [
          [
            854397.8045392467,
            6518785.974457751
          ],
          [
            854373.1955449879,
            6518860.723993405
          ],
          [
            854355.1050711726,
            6518954.369521244
          ],
          [
            854337.8815212793,
            6519152.588378954
          ],
          [
            854335.9057798074,
            6519300.652295362
          ]
        ]
      },
      "properties": {
        "id": 6,
        "node_up": 4,
        "node_down": 1,
        "length": 521.1159478447717,
        "speed": 30.555555555555554,
        "lanes": 2,
        "capacity": 1.1666666666666667,
        "fd_u": 30.555555555555554,
        "fd_w": 5.780780780780781,
        "fd_kx": 0.12,
        "fd_c": 0.5833333333333334
      }
    },
    {
      "type": "Feature",
      "geometry": {
        "type": "LineString",
        "coordinates": [
          [
            854320.2256384962,
            6519298.515447944
          ],
          [
            854328.7125225768,
            6519100.081540204
          ],
          [
            854336.7132778855,
            6518990.501219999
          ]
        ]
      },
      "properties": {
        "id": 7,
        "node_up": 0,
        "node_down": 2,
        "length": 308.4873243331674,
        "speed": 30.555555555555554,
        "lanes": 2,
        "capacity": 1.1666666666666667,
        "fd_u": 30.555555555555554,
        "fd_w": 5.780780780780781,
        "fd_kx": 0.12,
        "fd_c": 0.5833333333333334
      }
    },
    {
      "type": "Feature",
      "geometry": {
        "type": "LineString",
        "coordinates": [
          [
            854336.7132778855,
            6518990.501219999
          ],
          [
            854329.8167551754,
            6518917.139002667
          ],
          [
            854318.6810909141,
            6518873.293810444
          ],
          [
            854293.4359975872,
            6518834.32144552
          ],
          [
            854257.7070937364,
            6518795.0854202015
          ],
          [
            854266.0094278842,
            6518743.014888969
          ],
          [
            854291.1716683665,
            6518715.765019839
          ],
          [
            854361.763358545,
            6518689.657639364
          ],
          [
            854527.673803401,
            6518627.6113643255
          ],
          [
            854652.9167230373,
            6518583.713541596
          ],
          [
            854746.0619789944,
            6518564.713402379
          ]
        ]
      },
      "properties": {
        "id": 8,
        "node_up": 2,
        "node_down": 9,
        "length": 788.416249620489,
        "speed": 13.88888888888889,
        "lanes": 1,
        "capacity": 0.4166666666666667,
        "fd_u": 13.88888888888889,
        "fd_w": 3.7878787878787876,
        "fd_kx": 0.14,
        "fd_c": 0.4166666666666667
      }
    },
    {
      "type": "Feature",
      "geometry": {
        "type": "LineString",
        "coordinates": [
          [
            854746.0619789944,
            6518564.713402379
          ],
          [
            854912.7490892357,
            6518541.471004867
          ],
          [
            855042.4027221273,
            6518530.803371917
          ],
          [
            855158.3424540523,
            6518509.3353501335
          ],
          [
            855286.0737182072,
            6518505.595069299
          ],
          [
            855385.4951350868,
            6518515.0824348405
          ],
          [
            855483.1689603247,
            6518524.527134413
          ]
        ]
      },
      "properties": {
        "id": 9,
        "node_up": 9,
        "node_down": 11,
        "length": 742.0905061522807,
        "speed": 25.0,
        "lanes": 2,
        "capacity": 1.1666666666666667,
        "fd_u": 25.0,
        "fd_w": 6.03448275862069,
        "fd_kx": 0.12,
        "fd_c": 0.5833333333333334
      }
    },
    {
      "type": "Feature",
      "geometry": {
        "type": "LineString",
        "coordinates": [
          [
            854336.7132778855,
            6518990.501219999
          ],
          [
            854359.1739071454,
            6518862.113904095
          ],
          [
            854378.004299837,
            6518808.566240398
          ],
          [
            854397.5031971084,
            6518728.459552716
          ]
        ]
      },
      "properties": {
        "id": 10,
        "node_up": 2,
        "node_down": 3,
        "length": 269.5449579184339,
        "speed": 30.555555555555554,
        "lanes": 2,
        "capacity": 1.1666666666666667,
        "fd_u": 30.555555555555554,
        "fd_w": 5.780780780780781,
        "fd_kx": 0.12,
        "fd_c": 0.5833333333333334
      }
    },
    {
      "type": "Feature",
      "geometry": {
        "type": "LineString",
        "coordinates": [
          [
            854397.5031971084,
            6518728.459552716
          ],
          [
            854452.7154120781,
            6518618.753649638
          ],
          [
            854500.6881374383,
            6518518.88455849
          ],
          [
            854532.234534485,
            6518446.48435321
          ],
          [
            854568.3291270621,
            6518332.371673228
          ],
          [
            854587.3895859966,
            6518200.399923682
          ],
          [
            854582.0741630414,
            6518064.325702309
          ]
        ]
      },
      "properties": {
        "id": 11,
        "node_up": 3,
        "node_down": 6,
        "length": 701.7882356491866,
        "speed": 30.555555555555554,
        "lanes": 2,
        "capacity": 1.1666666666666667,
        "fd_u": 30.555555555555554,
        "fd_w": 5.780780780780781,
        "fd_kx": 0.12,
        "fd_c": 0.5833333333333334
      }
    }
  ]
}